IRIDIUM 150             
1 43257U 18030J   25152.90971609  .00000037  00000+0  61274-5 0  9993
2 43257  86.3958  89.4522 0002539  81.6912 278.4572 14.34217816375656
IRIDIUM 143             
1 43258U 18030K   25152.89068835  .00000288  00000+0  95763-4 0  9997
2 43258  86.3960  89.5379 0002719  78.6436 281.5066 14.34217149375582
IRIDIUM 161             
1 43478U 18047C   25152.75075081  .00000831  00000+0  24093-3 0  9996
2 43478  86.4497 247.3878 0002197  99.7706 260.3743 14.43277136370263
IRIDIUM 152             
1 43479U 18047D   25152.79363700  .00000552  00000+0  19007-3 0  9998
2 43479  86.3972 247.2302 0002282  98.7029 261.4425 14.34218448367967
IRIDIUM 147             
1 43480U 18047E   25152.79997505  .00000357  00000+0  12030-3 0  9998
2 43480  86.3975 247.2259 0002143  95.3181 264.8259 14.34216044367963
IRIDIUM 110             
1 43481U 18047F   25152.80632194 -.00000083  00000+0 -36696-4 0  9994
2 43481  86.3976 247.3055 0001942 107.8277 252.3130 14.34217071367951
IRIDIUM 162             
1 43482U 18047G   25152.74445412  .00000825  00000+0  23918-3 0  9997
2 43482  86.4497 247.2860 0002316 103.3453 256.8006 14.43277130370257
IRIDIUM 160             
1 43569U 18061A   25152.89169611 -.00000134  00000+0 -55090-4 0  9991
2 43569  86.4004 215.6654 0002064  98.9262 261.2168 14.34216667358864
